[
    {
        "Altitude(m)": 558271.163412699,
        "Argument of Periapsis(deg)": 0.026491964442854003,
        "Eccentricity": 0.0,
        "Inclination(deg)": 53.0,
        "Latitude(deg)": 46.03075139736658,
        "Longitude(deg)": 97.79252157218463,
        "Mean Anomaly(deg)": 64.00277147031036,
        "RAAN(deg)": 149.96057347411207,
        "Satellite Name": "Starlink Shell 1 661",
        "Satellite Number": 661,
        "Semi-Major Axis(m)": 6931778.249405717,
        "Time(s)": 760
    },
    {
        "Altitude(m)": 558342.2832829333,
        "Argument of Periapsis(deg)": 0.02684054292236524,
        "Eccentricity": 0.0,
        "Inclination(deg)": 53.0,
        "Latitude(deg)": 46.343766700573376,
        "Longitude(deg)": 98.53421749224132,
        "Mean Anomaly(deg)": 64.62960267386705,
        "RAAN(deg)": 149.9600547040346,
        "Satellite Name": "Starlink Shell 1 661",
        "Satellite Number": 661,
        "Semi-Major Axis(m)": 6931778.249405717,
        "Time(s)": 770
    },
    {
        "Altitude(m)": 558412.2819543618,
        "Argument of Periapsis(deg)": 0.027189121401876473,
        "Eccentricity": 0.0,
        "Inclination(deg)": 53.0,
        "Latitude(deg)": 46.65134408249533,
        "Longitude(deg)": 99.28481503993183,
        "Mean Anomaly(deg)": 65.2564338774238,
        "RAAN(deg)": 149.95953593395714,
        "Satellite Name": "Starlink Shell 1 661",
        "Satellite Number": 661,
        "Semi-Major Axis(m)": 6931778.249405717,
        "Time(s)": 780
    },
    {
        "Altitude(m)": 558481.1160889923,
        "Argument of Periapsis(deg)": 0.02753769988138771,
        "Eccentricity": 0.0,
        "Inclination(deg)": 53.0,
        "Latitude(deg)": 46.95336399867078,
        "Longitude(deg)": 100.04435185001628,
        "Mean Anomaly(deg)": 65.8832650809805,
        "RAAN(deg)": 149.95901716387965,
        "Satellite Name": "Starlink Shell 1 661",
        "Satellite Number": 661,
        "Semi-Major Axis(m)": 6931778.249405717,
        "Time(s)": 790
    },
    {
        "Altitude(m)": 558548.7431452041,
        "Argument of Periapsis(deg)": 0.02788627836089895,
        "Eccentricity": 0.0,
        "Inclination(deg)": 53.0,
        "Latitude(deg)": 47.24970577719567,
        "Longitude(deg)": 100.8128562383656,
        "Mean Anomaly(deg)": 66.51009628453721,
        "RAAN(deg)": 149.9584983938022,
        "Satellite Name": "Starlink Shell 1 661",
        "Satellite Number": 661,
        "Semi-Major Axis(m)": 6931778.249405717,
        "Time(s)": 800
    },
    {
        "Altitude(m)": 558615.1213988387,
        "Argument of Periapsis(deg)": 0.02823485684041019,
        "Eccentricity": 0.0,
        "Inclination(deg)": 53.0,
        "Latitude(deg)": 47.54024773534064,
        "Longitude(deg)": 101.59034715425597,
        "Mean Anomaly(deg)": 67.13692748809393,
        "RAAN(deg)": 149.95797962372473,
        "Satellite Name": "Starlink Shell 1 661",
        "Satellite Number": 661,
        "Semi-Major Axis(m)": 6931778.249405717,
        "Time(s)": 810
    },
    {
        "Altitude(m)": 558680.2099638967,
        "Argument of Periapsis(deg)": 0.028583435319921423,
        "Eccentricity": 0.0,
        "Inclination(deg)": 53.0,
        "Latitude(deg)": 47.82486730672584,
        "Longitude(deg)": 102.3768341277233,
        "Mean Anomaly(deg)": 67.76375869165066,
        "RAAN(deg)": 149.95746085364723,
        "Satellite Name": "Starlink Shell 1 661",
        "Satellite Number": 661,
        "Semi-Major Axis(m)": 6931778.249405717,
        "Time(s)": 820
    },
    {
        "Altitude(m)": 558743.9688127778,
        "Argument of Periapsis(deg)": 0.028932013799432665,
        "Eccentricity": 0.0,
        "Inclination(deg)": 53.0,
        "Latitude(deg)": 48.103441179306785,
        "Longitude(deg)": 103.1723157018657,
        "Mean Anomaly(deg)": 68.39058989520736,
        "RAAN(deg)": 149.95694208356977,
        "Satellite Name": "Starlink Shell 1 661",
        "Satellite Number": 661,
        "Semi-Major Axis(m)": 6931778.249405717,
        "Time(s)": 830
    },
    {
        "Altitude(m)": 558806.3587960852,
        "Argument of Periapsis(deg)": 0.029280592278943897,
        "Eccentricity": 0.0,
        "Inclination(deg)": 53.0,
        "Latitude(deg)": 48.375845444374626,
        "Longitude(deg)": 103.97677937890579,
        "Mean Anomaly(deg)": 69.01742109876407,
        "RAAN(deg)": 149.9564233134923,
        "Satellite Name": "Starlink Shell 1 661",
        "Satellite Number": 661,
        "Semi-Major Axis(m)": 6931778.249405717,
        "Time(s)": 840
    },
    {
        "Altitude(m)": 558867.3416619954,
        "Argument of Periapsis(deg)": 0.029629170758455132,
        "Eccentricity": 0.0,
        "Inclination(deg)": 53.0,
        "Latitude(deg)": 48.641955756718026,
        "Longitude(deg)": 104.79020157049395,
        "Mean Anomaly(deg)": 69.64425230232078,
        "RAAN(deg)": 149.95590454341482,
        "Satellite Name": "Starlink Shell 1 661",
        "Satellite Number": 661,
        "Semi-Major Axis(m)": 6931778.249405717,
        "Time(s)": 850
    },
    {
        "Altitude(m)": 558926.8800751218,
        "Argument of Periapsis(deg)": 0.02997774923796637,
        "Eccentricity": 0.0,
        "Inclination(deg)": 53.0,
        "Latitude(deg)": 48.90164750603184,
        "Longitude(deg)": 105.61254587493214,
        "Mean Anomaly(deg)": 70.27108350587751,
        "RAAN(deg)": 149.95538577333735,
        "Satellite Name": "Starlink Shell 1 661",
        "Satellite Number": 661,
        "Semi-Major Axis(m)": 6931778.249405717,
        "Time(s)": 860
    },
    {
        "Altitude(m)": 558984.9376349739,
        "Argument of Periapsis(deg)": 0.030326327717477602,
        "Eccentricity": 0.0,
        "Inclination(deg)": 53.0,
        "Latitude(deg)": 49.15479599958353,
        "Longitude(deg)": 106.44376388768667,
        "Mean Anomaly(deg)": 70.8979147094342,
        "RAAN(deg)": 149.9548670032599,
        "Satellite Name": "Starlink Shell 1 661",
        "Satellite Number": 661,
        "Semi-Major Axis(m)": 6931778.249405717,
        "Time(s)": 870
    },
    {
        "Altitude(m)": 559041.4788938852,
        "Argument of Periapsis(deg)": 0.030674906196988847,
        "Eccentricity": 0.0,
        "Inclination(deg)": 53.0,
        "Latitude(deg)": 49.401276656073456,
        "Longitude(deg)": 107.28379350648112,
        "Mean Anomaly(deg)": 71.52474591299092,
        "RAAN(deg)": 149.9543482331824,
        "Satellite Name": "Starlink Shell 1 661",
        "Satellite Number": 661,
        "Semi-Major Axis(m)": 6931778.249405717,
        "Time(s)": 880
    },
    {
        "Altitude(m)": 559096.4693744832,
        "Argument of Periapsis(deg)": 0.031023484676500086,
        "Eccentricity": 0.0,
        "Inclination(deg)": 53.0,
        "Latitude(deg)": 49.64096521053665,
        "Longitude(deg)": 108.1325589378657,
        "Mean Anomaly(deg)": 72.15157711654766,
        "RAAN(deg)": 149.95382946310494,
        "Satellite Name": "Starlink Shell 1 661",
        "Satellite Number": 661,
        "Semi-Major Axis(m)": 6931778.249405717,
        "Time(s)": 890
    },
    {
        "Altitude(m)": 559149.8755866727,
        "Argument of Periapsis(deg)": 0.03137206315601132,
        "Eccentricity": 0.0,
        "Inclination(deg)": 53.0,
        "Latitude(deg)": 49.87373793004139,
        "Longitude(deg)": 108.98997072898167,
        "Mean Anomaly(deg)": 72.77840832010435,
        "RAAN(deg)": 149.95331069302748,
        "Satellite Name": "Starlink Shell 1 661",
        "Satellite Number": 661,
        "Semi-Major Axis(m)": 6931778.249405717,
        "Time(s)": 900
    },
    {
        "Altitude(m)": 559201.665044103,
        "Argument of Periapsis(deg)": 0.03172064163552255,
        "Eccentricity": 0.0,
        "Inclination(deg)": 53.0,
        "Latitude(deg)": 50.099471839842714,
        "Longitude(deg)": 109.8559243165332,
        "Mean Anomaly(deg)": 73.4052395236611,
        "RAAN(deg)": 149.95279192294996,
        "Satellite Name": "Starlink Shell 1 661",
        "Satellite Number": 661,
        "Semi-Major Axis(m)": 6931778.249405717,
        "Time(s)": 910
    },
    {
        "Altitude(m)": 559251.8062801504,
        "Argument of Periapsis(deg)": 0.0320692201150338,
        "Eccentricity": 0.0,
        "Inclination(deg)": 53.0,
        "Latitude(deg)": 50.318044959539954,
        "Longitude(deg)": 110.73030012376776,
        "Mean Anomaly(deg)": 74.03207072721779,
        "RAAN(deg)": 149.95227315287252,
        "Satellite Name": "Starlink Shell 1 661",
        "Satellite Number": 661,
        "Semi-Major Axis(m)": 6931778.249405717,
        "Time(s)": 920
    },
    {
        "Altitude(m)": 559300.268863359,
        "Argument of Periapsis(deg)": 0.032417798594545036,
        "Eccentricity": 0.0,
        "Inclination(deg)": 53.0,
        "Latitude(deg)": 50.52933654868008,
        "Longitude(deg)": 111.61296369775087,
        "Mean Anomaly(deg)": 74.65890193077449,
        "RAAN(deg)": 149.95175438279506,
        "Satellite Name": "Starlink Shell 1 661",
        "Satellite Number": 661,
        "Semi-Major Axis(m)": 6931778.249405717,
        "Time(s)": 930
    },
    {
        "Altitude(m)": 559347.0234124062,
        "Argument of Periapsis(deg)": 0.03276637707405627,
        "Eccentricity": 0.0,
        "Inclination(deg)": 53.0,
        "Latitude(deg)": 50.73322736113333,
        "Longitude(deg)": 112.50376437928222,
        "Mean Anomaly(deg)": 75.28573313433121,
        "RAAN(deg)": 149.95123561271757,
        "Satellite Name": "Starlink Shell 1 661",
        "Satellite Number": 661,
        "Semi-Major Axis(m)": 6931778.249405717,
        "Time(s)": 940
    }
]